<?xml version="1.0" encoding="UTF-8"?>
<ndm xmlns:xsi="http://www.w3.org/2001/XMLSchema-instance" xsi:noNamespaceSchemaLocation="https://sanaregistry.org/r/ndmxml_unqualified/ndmxml-2.0.0-master-2.0.xsd">
<omm id="CCSDS_OMM_VERS" version="2.0">
<header><CREATION_DATE/><ORIGINATOR/></header><body><segment><metadata><OBJECT_NAME>QIANFAN-41</OBJECT_NAME><OBJECT_ID>2024-232F</OBJECT_ID><CENTER_NAME>EARTH</CENTER_NAME><REF_FRAME>TEME</REF_FRAME><TIME_SYSTEM>UTC</TIME_SYSTEM><MEAN_ELEMENT_THEORY>SGP4</MEAN_ELEMENT_THEORY></metadata><data><meanElements><EPOCH>2025-08-31T05:16:24.357504</EPOCH><MEAN_MOTION>13.50968438</MEAN_MOTION><ECCENTRICITY>.00155917</ECCENTRICITY><INCLINATION>88.9945</INCLINATION><RA_OF_ASC_NODE>51.6436</RA_OF_ASC_NODE><ARG_OF_PERICENTER>126.3001</ARG_OF_PERICENTER><MEAN_ANOMALY>233.9592</MEAN_ANOMALY></meanElements><tleParameters><EPHEMERIS_TYPE>0</EPHEMERIS_TYPE><CLASSIFICATION_TYPE>U</CLASSIFICATION_TYPE><NORAD_CAT_ID>62242</NORAD_CAT_ID><ELEMENT_SET_NO>999</ELEMENT_SET_NO><REV_AT_EPOCH>8527</REV_AT_EPOCH><BSTAR>.15259021E-3</BSTAR><MEAN_MOTION_DOT>.111E-5</MEAN_MOTION_DOT><MEAN_MOTION_DDOT>0</MEAN_MOTION_DDOT></tleParameters></data></segment></body></omm>
<omm id="CCSDS_OMM_VERS" version="2.0">
<header><CREATION_DATE/><ORIGINATOR/></header><body><segment><metadata><OBJECT_NAME>QIANFAN-42</OBJECT_NAME><OBJECT_ID>2024-232G</OBJECT_ID><CENTER_NAME>EARTH</CENTER_NAME><REF_FRAME>TEME</REF_FRAME><TIME_SYSTEM>UTC</TIME_SYSTEM><MEAN_ELEMENT_THEORY>SGP4</MEAN_ELEMENT_THEORY></metadata><data><meanElements><EPOCH>2025-08-31T05:24:03.586464</EPOCH><MEAN_MOTION>14.24342287</MEAN_MOTION><ECCENTRICITY>.00170646</ECCENTRICITY><INCLINATION>88.9946</INCLINATION><RA_OF_ASC_NODE>49.1782</RA_OF_ASC_NODE><ARG_OF_PERICENTER>67.0255</ARG_OF_PERICENTER><MEAN_ANOMALY>293.2735</MEAN_ANOMALY></meanElements><tleParameters><EPHEMERIS_TYPE>0</EPHEMERIS_TYPE><CLASSIFICATION_TYPE>U</CLASSIFICATION_TYPE><NORAD_CAT_ID>62243</NORAD_CAT_ID><ELEMENT_SET_NO>999</ELEMENT_SET_NO><REV_AT_EPOCH>8663</REV_AT_EPOCH><BSTAR>.10127973E-3</BSTAR><MEAN_MOTION_DOT>.249E-5</MEAN_MOTION_DOT><MEAN_MOTION_DDOT>0</MEAN_MOTION_DDOT></tleParameters></data></segment></body></omm>
<omm id="CCSDS_OMM_VERS" version="2.0">
<header><CREATION_DATE/><ORIGINATOR/></header><body><segment><metadata><OBJECT_NAME>QIANFAN-43</OBJECT_NAME><OBJECT_ID>2024-232H</OBJECT_ID><CENTER_NAME>EARTH</CENTER_NAME><REF_FRAME>TEME</REF_FRAME><TIME_SYSTEM>UTC</TIME_SYSTEM><MEAN_ELEMENT_THEORY>SGP4</MEAN_ELEMENT_THEORY></metadata><data><meanElements><EPOCH>2025-08-31T05:10:28.426656</EPOCH><MEAN_MOTION>13.50965717</MEAN_MOTION><ECCENTRICITY>.00169921</ECCENTRICITY><INCLINATION>88.9949</INCLINATION><RA_OF_ASC_NODE>51.7047</RA_OF_ASC_NODE><ARG_OF_PERICENTER>131.4640</ARG_OF_PERICENTER><MEAN_ANOMALY>228.7973</MEAN_ANOMALY></meanElements><tleParameters><EPHEMERIS_TYPE>0</EPHEMERIS_TYPE><CLASSIFICATION_TYPE>U</CLASSIFICATION_TYPE><NORAD_CAT_ID>62244</NORAD_CAT_ID><ELEMENT_SET_NO>999</ELEMENT_SET_NO><REV_AT_EPOCH>5388</REV_AT_EPOCH><BSTAR>.97060522E-4</BSTAR><MEAN_MOTION_DOT>.75E-6</MEAN_MOTION_DOT><MEAN_MOTION_DDOT>0</MEAN_MOTION_DDOT></tleParameters></data></segment></body></omm>
<omm id="CCSDS_OMM_VERS" version="2.0">
<header><CREATION_DATE/><ORIGINATOR/></header><body><segment><metadata><OBJECT_NAME>QIANFAN-44</OBJECT_NAME><OBJECT_ID>2024-232J</OBJECT_ID><CENTER_NAME>EARTH</CENTER_NAME><REF_FRAME>TEME</REF_FRAME><TIME_SYSTEM>UTC</TIME_SYSTEM><MEAN_ELEMENT_THEORY>SGP4</MEAN_ELEMENT_THEORY></metadata><data><meanElements><EPOCH>2025-08-31T04:52:41.361600</EPOCH><MEAN_MOTION>13.50964473</MEAN_MOTION><ECCENTRICITY>.00152709</ECCENTRICITY><INCLINATION>88.9948</INCLINATION><RA_OF_ASC_NODE>51.5183</RA_OF_ASC_NODE><ARG_OF_PERICENTER>128.3598</ARG_OF_PERICENTER><MEAN_ANOMALY>231.8928</MEAN_ANOMALY></meanElements><tleParameters><EPHEMERIS_TYPE>0</EPHEMERIS_TYPE><CLASSIFICATION_TYPE>U</CLASSIFICATION_TYPE><NORAD_CAT_ID>62245</NORAD_CAT_ID><ELEMENT_SET_NO>999</ELEMENT_SET_NO><REV_AT_EPOCH>8535</REV_AT_EPOCH><BSTAR>.10385688E-3</BSTAR><MEAN_MOTION_DOT>.79E-6</MEAN_MOTION_DOT><MEAN_MOTION_DDOT>0</MEAN_MOTION_DDOT></tleParameters></data></segment></body></omm>
<omm id="CCSDS_OMM_VERS" version="2.0">
<header><CREATION_DATE/><ORIGINATOR/></header><body><segment><metadata><OBJECT_NAME>QIANFAN-45</OBJECT_NAME><OBJECT_ID>2024-232K</OBJECT_ID><CENTER_NAME>EARTH</CENTER_NAME><REF_FRAME>TEME</REF_FRAME><TIME_SYSTEM>UTC</TIME_SYSTEM><MEAN_ELEMENT_THEORY>SGP4</MEAN_ELEMENT_THEORY></metadata><data><meanElements><EPOCH>2025-08-31T05:51:57.975264</EPOCH><MEAN_MOTION>13.50967960</MEAN_MOTION><ECCENTRICITY>.00159201</ECCENTRICITY><INCLINATION>88.9951</INCLINATION><RA_OF_ASC_NODE>51.6570</RA_OF_ASC_NODE><ARG_OF_PERICENTER>128.1013</ARG_OF_PERICENTER><MEAN_ANOMALY>232.1577</MEAN_ANOMALY></meanElements><tleParameters><EPHEMERIS_TYPE>0</EPHEMERIS_TYPE><CLASSIFICATION_TYPE>U</CLASSIFICATION_TYPE><NORAD_CAT_ID>62246</NORAD_CAT_ID><ELEMENT_SET_NO>999</ELEMENT_SET_NO><REV_AT_EPOCH>8528</REV_AT_EPOCH><BSTAR>.10475708E-3</BSTAR><MEAN_MOTION_DOT>.8E-6</MEAN_MOTION_DOT><MEAN_MOTION_DDOT>0</MEAN_MOTION_DDOT></tleParameters></data></segment></body></omm>
<omm id="CCSDS_OMM_VERS" version="2.0">
<header><CREATION_DATE/><ORIGINATOR/></header><body><segment><metadata><OBJECT_NAME>QIANFAN-46</OBJECT_NAME><OBJECT_ID>2024-232L</OBJECT_ID><CENTER_NAME>EARTH</CENTER_NAME><REF_FRAME>TEME</REF_FRAME><TIME_SYSTEM>UTC</TIME_SYSTEM><MEAN_ELEMENT_THEORY>SGP4</MEAN_ELEMENT_THEORY></metadata><data><meanElements><EPOCH>2025-08-31T06:27:30.145824</EPOCH><MEAN_MOTION>13.50968672</MEAN_MOTION><ECCENTRICITY>.00158935</ECCENTRICITY><INCLINATION>88.9947</INCLINATION><RA_OF_ASC_NODE>51.7278</RA_OF_ASC_NODE><ARG_OF_PERICENTER>133.0232</ARG_OF_PERICENTER><MEAN_ANOMALY>227.2254</MEAN_ANOMALY></meanElements><tleParameters><EPHEMERIS_TYPE>0</EPHEMERIS_TYPE><CLASSIFICATION_TYPE>U</CLASSIFICATION_TYPE><NORAD_CAT_ID>62247</NORAD_CAT_ID><ELEMENT_SET_NO>999</ELEMENT_SET_NO><REV_AT_EPOCH>8524</REV_AT_EPOCH><BSTAR>.88514916E-4</BSTAR><MEAN_MOTION_DOT>.69E-6</MEAN_MOTION_DOT><MEAN_MOTION_DDOT>0</MEAN_MOTION_DDOT></tleParameters></data></segment></body></omm>
<omm id="CCSDS_OMM_VERS" version="2.0">
<header><CREATION_DATE/><ORIGINATOR/></header><body><segment><metadata><OBJECT_NAME>QIANFAN-47</OBJECT_NAME><OBJECT_ID>2024-232M</OBJECT_ID><CENTER_NAME>EARTH</CENTER_NAME><REF_FRAME>TEME</REF_FRAME><TIME_SYSTEM>UTC</TIME_SYSTEM><MEAN_ELEMENT_THEORY>SGP4</MEAN_ELEMENT_THEORY></metadata><data><meanElements><EPOCH>2025-08-31T04:46:41.599776</EPOCH><MEAN_MOTION>13.50962053</MEAN_MOTION><ECCENTRICITY>.00163249</ECCENTRICITY><INCLINATION>88.9943</INCLINATION><RA_OF_ASC_NODE>51.6720</RA_OF_ASC_NODE><ARG_OF_PERICENTER>132.5632</ARG_OF_PERICENTER><MEAN_ANOMALY>227.6900</MEAN_ANOMALY></meanElements><tleParameters><EPHEMERIS_TYPE>0</EPHEMERIS_TYPE><CLASSIFICATION_TYPE>U</CLASSIFICATION_TYPE><NORAD_CAT_ID>62248</NORAD_CAT_ID><ELEMENT_SET_NO>999</ELEMENT_SET_NO><REV_AT_EPOCH>8526</REV_AT_EPOCH><BSTAR>.10242127E-3</BSTAR><MEAN_MOTION_DOT>.78E-6</MEAN_MOTION_DOT><MEAN_MOTION_DDOT>0</MEAN_MOTION_DDOT></tleParameters></data></segment></body></omm>
<omm id="CCSDS_OMM_VERS" version="2.0">
<header><CREATION_DATE/><ORIGINATOR/></header><body><segment><metadata><OBJECT_NAME>QIANFAN-48</OBJECT_NAME><OBJECT_ID>2024-232N</OBJECT_ID><CENTER_NAME>EARTH</CENTER_NAME><REF_FRAME>TEME</REF_FRAME><TIME_SYSTEM>UTC</TIME_SYSTEM><MEAN_ELEMENT_THEORY>SGP4</MEAN_ELEMENT_THEORY></metadata><data><meanElements><EPOCH>2025-08-31T05:40:05.117376</EPOCH><MEAN_MOTION>13.50965347</MEAN_MOTION><ECCENTRICITY>.00185212</ECCENTRICITY><INCLINATION>88.9947</INCLINATION><RA_OF_ASC_NODE>51.6660</RA_OF_ASC_NODE><ARG_OF_PERICENTER>135.4316</ARG_OF_PERICENTER><MEAN_ANOMALY>224.8328</MEAN_ANOMALY></meanElements><tleParameters><EPHEMERIS_TYPE>0</EPHEMERIS_TYPE><CLASSIFICATION_TYPE>U</CLASSIFICATION_TYPE><NORAD_CAT_ID>62249</NORAD_CAT_ID><ELEMENT_SET_NO>999</ELEMENT_SET_NO><REV_AT_EPOCH>8527</REV_AT_EPOCH><BSTAR>.11610365E-3</BSTAR><MEAN_MOTION_DOT>.87E-6</MEAN_MOTION_DOT><MEAN_MOTION_DDOT>0</MEAN_MOTION_DDOT></tleParameters></data></segment></body></omm>

</ndm>
