QIANFAN-41              
1 62242U 24232F   25243.21972636  .00000111  00000+0  15259-3 0  9998
2 62242  88.9945  51.6436 0015591 126.3001 233.9592 13.50968438 85272
QIANFAN-42              
1 62243U 24232G   25243.22504151  .00000249  00000+0  10128-3 0  9995
2 62243  88.9946  49.1782 0017064  67.0255 293.2735 14.24342287 86638
QIANFAN-43              
1 62244U 24232H   25243.21560679  .00000075  00000+0  97061-4 0  9991
2 62244  88.9949  51.7047 0016992 131.4640 228.7973 13.50965717 53883
QIANFAN-44              
1 62245U 24232J   25243.20325650  .00000079  00000+0  10386-3 0  9997
2 62245  88.9948  51.5183 0015270 128.3598 231.8928 13.50964473 85357
QIANFAN-45              
1 62246U 24232K   25243.24442101  .00000080  00000+0  10476-3 0  9995
2 62246  88.9951  51.6570 0015920 128.1013 232.1577 13.50967960 85285
QIANFAN-46              
1 62247U 24232L   25243.26909891  .00000069  00000+0  88515-4 0  9999
2 62247  88.9947  51.7278 0015893 133.0232 227.2254 13.50968672 85248
QIANFAN-47              
1 62248U 24232M   25243.19909259  .00000078  00000+0  10242-3 0  9991
2 62248  88.9943  51.6720 0016324 132.5632 227.6900 13.50962053 85265
QIANFAN-48              
1 62249U 24232N   25243.23617034  .00000087  00000+0  11610-3 0  9994
2 62249  88.9947  51.6660 0018521 135.4316 224.8328 13.50965347 85278
